H1 CPF 01  gfz 2021 06 09 00  6601 terrasarx 
H2 0702601  6201 31698    2021 06 09 00 59 42 2021 06 14 00 00 42   120 1 1  0 0 0
H9
10 0 59374  36702.000000  0   -2280139.705   5414406.183   3588624.021
10 0 59374  36822.000000  0   -1906474.479   5003894.157   4324457.289
10 0 59374  36942.000000  0   -1507501.506   4499167.320   4984173.126
10 0 59374  37062.000000  0   -1091777.036   3908706.210   5556190.599
10 0 59374  37182.000000  0    -667982.369   3242635.602   6030482.449
10 0 59374  37302.000000  0    -244744.000   2512542.843   6398746.003
10 0 59374  37422.000000  0     169540.466   1731270.656   6654542.003
10 0 59374  37542.000000  0     566867.646    912687.754   6793401.972
10 0 59374  37662.000000  0     939781.879     71440.675   6812900.544
10 0 59374  37782.000000  0    1281513.951   -777307.068   6712695.346
10 0 59374  37902.000000  0    1586103.517  -1618147.970   6494533.565
10 0 59374  38022.000000  0    1848503.374  -2435709.524   6162223.695
10 0 59374  38142.000000  0    2064663.803  -3214936.241   5721573.804
10 0 59374  38262.000000  0    2231595.786  -3941369.535   5180295.234
10 0 59374  38382.000000  0    2347411.471  -4601419.527   4547872.892
10 0 59374  38502.000000  0    2411342.496  -5182625.048   3835404.920
10 0 59374  38622.000000  0    2423735.430  -5673897.333   3055410.957
10 0 59374  38742.000000  0    2386021.779  -6065740.580   2221612.492
10 0 59374  38862.000000  0    2300665.258  -6350443.037   1348688.502
10 0 59374  38982.000000  0    2171087.694  -6522234.161    452012.892
10 0 59374  39102.000000  0    2001574.313  -6577406.873   -452622.534
10 0 59374  39222.000000  0    1797161.196  -6514398.722  -1349296.487
10 0 59374  39342.000000  0    1563505.130  -6333826.855  -2222248.321
10 0 59374  39462.000000  0    1306742.206  -6038480.560  -3056162.204
10 0 59374  39582.000000  0    1033339.018  -5633267.363  -3836441.026
10 0 59374  39702.000000  0     749941.054  -5125119.836  -4549461.998
10 0 59374  39822.000000  0     463220.019  -4522864.567  -5182811.542
10 0 59374  39942.000000  0     179724.856  -3837057.426  -5725494.685
10 0 59374  40062.000000  0     -94260.472  -3079788.725  -6168116.804
10 0 59374  40182.000000  0    -352849.414  -2264463.358  -6503034.981
10 0 59374  40302.000000  0    -590673.232  -1405560.603  -6724478.450
10 0 59374  40422.000000  0    -802987.296   -518378.261  -6828638.145
10 0 59374  40542.000000  0    -985761.555    381236.283  -6813725.162
10 0 59374  40662.000000  0   -1135754.487   1277162.419  -6679996.848
10 0 59374  40782.000000  0   -1250569.273   2153287.713  -6429752.737
10 0 59374  40902.000000  0   -1328691.319   2993790.218  -6067299.645
10 0 59374  41022.000000  0   -1369507.295   3783420.325  -5598886.857
10 0 59374  41142.000000  0   -1373304.751   4507776.186  -5032608.533
10 0 59374  41262.000000  0   -1341252.575   5153569.279  -4378275.781
10 0 59374  41382.000000  0   -1275362.455   5708874.922  -3647256.672
10 0 59374  41502.000000  0   -1178431.233   6163361.056  -2852286.704
10 0 59374  41622.000000  0   -1053965.459   6508491.309  -2007253.297
10 0 59374  41742.000000  0    -906089.470   6737697.892  -1126955.152
10 0 59374  41862.000000  0    -739439.209   6846517.439   -226841.894
10 0 59374  41982.000000  0    -559043.462   6832688.497    677261.468
10 0 59374  42102.000000  0    -370195.925   6696205.398   1569441.558
10 0 59374  42222.000000  0    -178321.614   6439324.059   2433987.372
10 0 59374  42342.000000  0      11158.571   6066521.254   3255674.694
10 0 59374  42462.000000  0     192962.097   5584411.460   4020039.702
10 0 59374  42582.000000  0     362074.627   5001624.628   4713639.243
10 0 59374  42702.000000  0     513872.445   4328638.190   5324292.451
10 0 59374  42822.000000  0     644234.052   3577577.204   5841288.719
10 0 59374  42942.000000  0     749639.237   2761989.152   6255572.666
10 0 59374  43062.000000  0     827251.891   1896591.868   6559897.341
10 0 59374  43182.000000  0     874986.420    997003.300   6748945.045
10 0 59374  43302.000000  0     891556.410     79457.072   6819414.123
10 0 59374  43422.000000  0     876504.687   -839489.302   6770072.995
10 0 59374  43542.000000  0     830214.033  -1743252.913   6601781.649
10 0 59374  43662.000000  0     753898.440  -2615524.459   6317477.909
10 0 59374  43782.000000  0     649575.035  -3440564.086   5922129.701
10 0 59374  43902.000000  0     520016.762  -4203487.182   5422650.800
10 0 59374  44022.000000  0     368688.359  -4890534.899   4827785.839
10 0 59374  44142.000000  0     199665.892  -5489328.419   4147964.858
10 0 59374  44262.000000  0      17540.037  -5989102.473   3395125.322
10 0 59374  44382.000000  0    -172694.581  -6380909.470   2582504.096
10 0 59374  44502.000000  0    -365760.899  -6657789.505   1724402.981
10 0 59374  44622.000000  0    -556229.141  -6814902.379    835934.254
10 0 59374  44742.000000  0    -738651.832  -6849620.598    -67252.786
10 0 59374  44862.000000  0    -907700.424  -6761575.082   -969257.605
10 0 59374  44982.000000  0   -1058299.050  -6552654.415  -1854217.474
10 0 59374  45102.000000  0   -1185752.710  -6226959.574  -2706593.624
10 0 59374  45222.000000  0   -1285867.159  -5790715.621  -3511449.928
10 0 59374  45342.000000  0   -1355057.180  -5252141.536  -4254717.941
10 0 59374  45462.000000  0   -1390440.287  -4621282.285  -4923441.573
10 0 59374  45582.000000  0   -1389914.184  -3909809.729  -5505997.184
10 0 59374  45702.000000  0   -1352216.499  -3130797.352  -5992287.347
10 0 59374  45822.000000  0   -1276965.685  -2298473.294  -6373905.928
10 0 59374  45942.000000  0   -1164682.665  -1427956.693  -6644271.877
10 0 59374  46062.000000  0   -1016793.455   -534983.752  -6798731.439
10 0 59374  46182.000000  0    -835612.810    364372.939  -6834629.579
10 0 59374  46302.000000  0    -624308.022   1253987.077  -6751349.682
10 0 59374  46422.000000  0    -386844.757   2117960.093  -6550322.802
10 0 59374  46542.000000  0    -127915.842   2940897.964  -6235006.376
10 0 59374  46662.000000  0     147147.800   3708181.596  -5810832.792
10 0 59374  46782.000000  0     432482.560   4406225.442  -5285124.677
10 0 59374  46902.000000  0     721810.999   5022719.497  -4666979.786
10 0 59374  47022.000000  0    1008573.299   5546853.064  -3967125.129
10 0 59374  47142.000000  0    1286069.012   5969513.633  -3197740.026
10 0 59374  47262.000000  0    1547605.797   6283456.531  -2372251.400
10 0 59374  47382.000000  0    1786652.212   6483441.863  -1505103.114
10 0 59374  47502.000000  0    1996991.114   6566333.941   -611502.453
10 0 59374  47622.000000  0    2172869.360   6531159.037    292851.246
10 0 59374  47742.000000  0    2309139.540   6379119.882   1192049.077
10 0 59374  47862.000000  0    2401390.642   6113566.805   2070260.121
10 0 59374  47982.000000  0    2446063.987   5739925.899   2912018.256
10 0 59374  48102.000000  0    2440552.003   5265586.369   3702502.101
10 0 59374  48222.000000  0    2383276.687   4699749.384   4427802.719
10 0 59374  48342.000000  0    2273745.270   4053241.013   5075173.836
10 0 59374  48462.000000  0    2112581.239   3338293.297   5633254.496
10 0 59374  48582.000000  0    1901533.409   2568305.957   6092263.743
10 0 59374  48702.000000  0    1643461.469   1757589.659   6444168.135
10 0 59374  48822.000000  0    1342297.444    921094.596   6682816.847
10 0 59374  48942.000000  0    1002984.874     74132.291   6804041.822
10 0 59374  49062.000000  0     631397.372   -767903.273   6805726.147
10 0 59374  49182.000000  0     234236.738  -1589815.458   6687840.325
10 0 59374  49302.000000  0    -181088.119  -2376879.215   6452442.569
10 0 59374  49422.000000  0    -606599.230  -3115105.566   6103644.660
10 0 59374  49542.000000  0   -1033900.835  -3791491.076   5647542.269
10 0 59374  49662.000000  0   -1454341.918  -4394248.136   5092114.583
10 0 59374  49782.000000  0   -1859190.250  -4913015.996   4447093.562
10 0 59374  49902.000000  0   -2239813.829  -5339048.164   3723799.606
10 0 59374  50022.000000  0   -2587864.871  -5665369.430   2934944.568
10 0 59374  50142.000000  0   -2895461.398  -5886897.074   2094407.374
10 0 59374  50262.000000  0   -3155362.681  -6000525.833   1216987.149
10 0 59374  50382.000000  0   -3361134.493  -6005174.131    318137.158
10 0 59374  50502.000000  0   -3507299.737  -5901789.679   -586314.877
10 0 59374  50622.000000  0   -3589470.665  -5693314.167  -1480454.482
10 0 59374  50742.000000  0   -3604459.053  -5384607.056  -2348569.518
10 0 59374  50862.000000  0   -3550361.667  -4982330.887  -3175433.689
10 0 59374  50982.000000  0   -3426618.471  -4494801.447  -3946578.084
10 0 59374  51102.000000  0   -3234042.682  -3931808.067  -4648544.383
10 0 59374  51222.000000  0   -2974823.282  -3304409.548  -5269116.008
10 0 59374  51342.000000  0   -2652500.441  -2624710.120  -5797523.651
10 0 59374  51462.000000  0   -2271914.874  -1905621.368  -6224622.572
10 0 59374  51582.000000  0   -1839131.700  -1160614.753  -6543040.524
10 0 59374  51702.000000  0   -1361340.940   -403469.421  -6747293.143
10 0 59374  51822.000000  0    -846738.097    351979.042  -6833867.151
10 0 59374  51942.000000  0    -304385.741   1092085.040  -6801274.036
10 0 59374  52062.000000  0     255942.533   1803633.067  -6650072.575
10 0 59374  52182.000000  0     823932.536   2474067.408  -6382861.616
10 0 59374  52302.000000  0    1388915.775   3091710.483  -6004241.711
10 0 59374  52422.000000  0    1940065.492   3645965.048  -5520743.409
10 0 59374  52542.000000  0    2466600.692   4127496.784  -4940725.102
10 0 59374  52662.000000  0    2957995.182   4528395.747  -4274240.320
10 0 59374  52782.000000  0    3404187.733   4842313.612  -3532873.842
10 0 59374  52902.000000  0    3795789.312   5064572.428  -2729548.813
10 0 59374  53022.000000  0    4124283.383   5192242.059  -1878306.056
10 0 59374  53142.000000  0    4382212.419   5224183.600   -994060.134
99
